NORAD_CAT_ID,OBJECT_NAME,OBJECT_TYPE,EPOCH,MEAN_MOTION,ECCENTRICITY,INCLINATION,RA_OF_ASC_NODE,ARG_OF_PERICENTER,MEAN_ANOMALY,BSTAR,MEAN_MOTION_DOT,MEAN_MOTION_DDOT,TLE_LINE0,TLE_LINE1,TLE_LINE2,SEMIMAJOR_AXIS,PERIOD,APOGEE,PERIGEE,DECAYED
53400.0,STARLINK-4520,PAYLOAD,2023-02-05 17:34:29,15.08839299,0.0001463,53.2181,147.7209,111.0145,249.1004,3.9469e-05,3.4e-06,0.0,0 STARLINK-4520,1 53400U 22097N   23036.73228719  .00000340  00000-0  39469-4 0  9997,2 53400  53.2181 147.7209 0001463 111.0145 249.1004 15.08839299 28230,6917.883,95.438,540.76,538.735,0.0
53400.0,STARLINK-4520,PAYLOAD,2023-02-06 11:03:44,15.08845081,0.0001041,53.2174,144.4526,97.0706,263.0404,2.5581e-05,1.19e-06,0.0,0 STARLINK-4520,1 53400U 22097N   23037.46092593  .00000119  00000-0  25581-4 0  9991,2 53400  53.2174 144.4526 0001041  97.0706 263.0404 15.08845081 27858,6917.865,95.437,540.45,539.01,0.0
53400.0,STARLINK-4520,PAYLOAD,2023-02-06 12:39:06,15.08847532,0.0001114,53.2172,144.1557,93.2886,266.8234,6.0518e-05,6.76e-06,0.0,0 STARLINK-4520,1 53400U 22097N   23037.52716393  .00000676  00000-0  60518-4 0  9996,2 53400  53.2172 144.1557 0001114  93.2886 266.8234 15.08847532 28356,6917.857,95.437,540.493,538.952,0.0
53400.0,STARLINK-4520,PAYLOAD,2023-02-06 15:49:52,15.08856145,0.0001183,53.2174,143.5615,91.4555,268.6573,0.00014122,1.961e-05,0.0,0 STARLINK-4520,1 53400U 22097N   23037.65963626  .00001961  00000-0  14122-3 0  9990,2 53400  53.2174 143.5615 0001183  91.4555 268.6573 15.08856145 27888,6917.831,95.437,540.514,538.878,0.0
53400.0,STARLINK-4520,PAYLOAD,2023-02-07 06:08:21,15.08840931,0.0001483,53.2183,140.8852,88.9025,271.2137,0.00018684,2.687e-05,0.0,0 STARLINK-4520,1 53400U 22097N   23038.25580508  .00002687  00000-0  18684-3 0  9994,2 53400  53.2183 140.8852 0001483  88.9025 271.2137 15.08840931 27979,6917.878,95.437,540.768,538.717,0.0
53400.0,STARLINK-4520,PAYLOAD,2023-02-07 14:05:16,15.08848077,0.0001432,53.2185,139.3986,89.9007,270.2149,0.00010679,1.412e-05,0.0,0 STARLINK-4520,1 53400U 22097N   23038.58700208  .00001412  00000-0  10679-3 0  9992,2 53400  53.2185 139.3986 0001432  89.9007 270.2149 15.08848077 28519,6917.856,95.437,540.711,538.73,0.0
53400.0,STARLINK-4520,PAYLOAD,2023-02-08 07:34:31,15.08838189,0.0001193,53.2172,136.1282,97.5422,262.5705,-3.6225e-05,-8.64e-06,0.0,0 STARLINK-4520,1 53400U 22097N   23039.31564507 -.00000864  00000-0 -36225-4 0  9992,2 53400  53.2172 136.1282 0001193  97.5422 262.5705 15.08838189 28132,6917.886,95.438,540.576,538.926,0.0
53400.0,STARLINK-4520,PAYLOAD,2023-02-08 13:56:03,15.08849594,0.0001261,53.217,134.9377,93.0213,267.0924,3.4039e-05,2.54e-06,0.0,0 STARLINK-4520,1 53400U 22097N   23039.58059921  .00000254  00000-0  34039-4 0  9992,2 53400  53.2170 134.9377 0001261  93.0213 267.0924 15.08849594 28175,6917.851,95.437,540.588,538.844,0.0
53400.0,STARLINK-4520,PAYLOAD,2023-02-09 10:36:04,15.08851723,0.0001582,53.2178,131.0733,92.2459,267.8714,0.00022183,3.245e-05,0.0,0 STARLINK-4520,1 53400U 22097N   23040.44171790  .00003245  00000-0  22183-3 0  9997,2 53400  53.2178 131.0733 0001582  92.2459 267.8714 15.08851723 28796,6917.845,95.437,540.804,538.615,0.0
53400.0,STARLINK-4520,PAYLOAD,2023-02-09 12:11:27,15.08853678,0.0001397,53.2166,130.7765,87.181,272.9342,0.00028942,4.323e-05,0.0,0 STARLINK-4520,1 53400U 22097N   23040.50795868  .00004323  00000-0  28942-3 0  9999,2 53400  53.2166 130.7765 0001397  87.1810 272.9342 15.08853678 28809,6917.839,95.437,540.67,538.737,0.0
53400.0,STARLINK-4520,PAYLOAD,2023-02-09 23:19:09,15.08847915,0.0001812,53.2164,128.6977,66.9542,293.1641,0.00019224,2.773e-05,0.0,0 STARLINK-4520,1 53400U 22097N   23040.97163955  .00002773  00000-0  19224-3 0  9996,2 53400  53.2164 128.6977 0001812  66.9542 293.1641 15.08847915 28384,6917.856,95.437,540.975,538.468,0.0
53400.0,STARLINK-4520,PAYLOAD,2023-02-10 15:13:00,15.08852237,0.000115,53.2147,125.7178,99.7683,260.3439,0.00022722,3.331e-05,0.0,0 STARLINK-4520,1 53400U 22097N   23041.63403647  .00003331  00000-0  22722-3 0  9993,2 53400  53.2147 125.7178 0001150  99.7683 260.3439 15.08852237 28970,6917.843,95.437,540.504,538.912,0.0
53400.0,STARLINK-4520,PAYLOAD,2023-02-11 08:42:16,15.08827401,0.0001408,53.214,122.4505,85.5105,274.6048,-8.5776e-05,-1.652e-05,0.0,0 STARLINK-4520,1 53400U 22097N   23042.36269269 -.00001652  00000-0 -85776-4 0  9999,2 53400  53.2140 122.4505 0001408  85.5105 274.6048 15.08827401 28596,6917.919,95.438,540.758,538.81,0.0
53400.0,STARLINK-4520,PAYLOAD,2023-02-11 15:03:48,15.08844715,0.000113,53.2141,121.2611,75.3896,284.7221,0.00030948,4.642e-05,0.0,0 STARLINK-4520,1 53400U 22097N   23042.62764882  .00004642  00000-0  30948-3 0  9999,2 53400  53.2141 121.2611 0001130  75.3896 284.7221 15.08844715 28635,6917.866,95.437,540.513,538.949,0.0
53400.0,STARLINK-4520,PAYLOAD,2023-02-12 05:22:17,15.08827792,9.52e-05,53.214,118.5833,100.6214,259.4885,0.00014078,1.953e-05,0.0,0 STARLINK-4520,1 53400U 22097N   23043.22381875  .00001953  00000-0  14078-3 0  9991,2 53400  53.2140 118.5833 0000952 100.6214 259.4885 15.08827792 28727,6917.918,95.438,540.441,539.124,0.0
53400.0,STARLINK-4520,PAYLOAD,2023-02-12 13:19:12,15.08851226,9.12e-05,53.2157,117.0952,109.2678,250.8413,0.00047936,7.352e-05,0.0,0 STARLINK-4520,1 53400U 22097N   23043.55501016  .00007352  00000-0  47936-3 0  9996,2 53400  53.2157 117.0952 0000912 109.2678 250.8413 15.08851226 28772,6917.846,95.437,540.342,539.08,0.0
53400.0,STARLINK-4520,PAYLOAD,2023-02-13 05:13:04,15.08843579,0.0001272,53.2156,114.12,102.3888,257.7247,0.0007213,0.00011211,0.0,0 STARLINK-4520,1 53400U 22097N   23044.21741565  .00011211  00000-0  72130-3 0  9998,2 53400  53.2156 114.1200 0001272 102.3888 257.7247 15.08843579 28876,6917.869,95.437,540.614,538.854,0.0
53400.0,STARLINK-4520,PAYLOAD,2023-02-13 13:10:00,15.08864165,9.43e-05,53.2162,112.6354,95.2818,264.8282,0.0021169,0.00033586,0.0,0 STARLINK-4520,1 53400U 22097N   23044.54861328  .00033586  00000-0  21169-2 0  9998,2 53400  53.2162 112.6354 0000943  95.2818 264.8282 15.08864165 29416,6917.807,95.436,540.324,539.019,0.0
53400.0,STARLINK-4520,PAYLOAD,2023-02-13 16:20:46,15.0887739,8.15e-05,53.2157,112.0396,80.6401,279.4684,0.0024777,0.00039406,0.0,0 STARLINK-4520,1 53400U 22097N   23044.68109036  .00039406  00000-0  24777-2 0  9999,2 53400  53.2157 112.0396 0000815  80.6401 279.4684 15.08877390 28943,6917.766,95.435,540.195,539.067,0.0
53400.0,STARLINK-4520,PAYLOAD,2023-02-13 21:06:55,15.08838223,7.91e-05,53.2162,111.1492,201.6525,158.4433,-0.00054583,-8.963e-05,0.0,0 STARLINK-4520,1 53400U 22097N   23044.87980958 -.00008963  00000-0 -54583-3 0  9995,2 53400  53.2162 111.1492 0000791 201.6525 158.4433 15.08838223 28974,6917.886,95.438,540.298,539.204,0.0
53400.0,STARLINK-4520,PAYLOAD,2023-02-14 11:25:24,15.08858942,0.0001005,53.2155,108.4714,101.7409,258.3696,0.0023554,0.00037417,0.0,0 STARLINK-4520,1 53400U 22097N   23045.47597755  .00037417  00000-0  23554-2 0  9998,2 53400  53.2155 108.4714 0001005 101.7409 258.3696 15.08858942 29064,6917.822,95.436,540.383,538.992,0.0
53400.0,STARLINK-4520,PAYLOAD,2023-02-14 14:36:10,15.08868098,0.0001014,53.2155,107.8767,100.2787,259.8319,0.0028151,0.00044834,0.0,0 STARLINK-4520,1 53400U 22097N   23045.60845646  .00044834  00000-0  28151-2 0  9997,2 53400  53.2155 107.8767 0001014 100.2787 259.8319 15.08868098 29575,6917.795,95.436,540.361,538.958,0.0
53400.0,STARLINK-4520,PAYLOAD,2023-02-14 20:57:43,15.08847825,0.0002101,53.2156,106.687,75.9768,284.1458,0.0023429,0.00037205,0.0,0 STARLINK-4520,1 53400U 22097N   23045.87342110  .00037205  00000-0  23429-2 0  9991,2 53400  53.2156 106.6870 0002101  75.9768 284.1458 15.08847825 29124,6917.856,95.437,541.175,538.268,0.0
53400.0,STARLINK-4520,PAYLOAD,2023-02-15 08:05:25,15.08863159,9.45e-05,53.2154,104.6058,86.9823,273.1278,0.001658,0.00026214,0.0,0 STARLINK-4520,1 53400U 22097N   23046.33709604  .00026214  00000-0  16580-2 0  9996,2 53400  53.2154 104.6058 0000945  86.9823 273.1278 15.08863159 29199,6917.81,95.436,540.328,539.021,0.0
53400.0,STARLINK-4520,PAYLOAD,2023-02-15 11:16:11,15.08867922,9.47e-05,53.2153,104.0111,84.1838,275.9262,0.0022212,0.00035267,0.0,0 STARLINK-4520,1 53400U 22097N   23046.46957519  .00035267  00000-0  22212-2 0  9997,2 53400  53.2153 104.0111 0000947  84.1838 275.9262 15.08867922 29702,6917.795,95.436,540.315,539.005,0.0
53400.0,STARLINK-4520,PAYLOAD,2023-02-15 16:02:20,15.08902315,0.0001012,53.2152,103.1191,85.2404,274.8703,0.0040459,0.00064805,0.0,0 STARLINK-4520,1 53400U 22097N   23046.66828926  .00064805  00000-0  40459-2 0  9991,2 53400  53.2152 103.1191 0001012  85.2404 274.8703 15.08902315 29247,6917.69,95.434,540.255,538.855,0.0
53400.0,STARLINK-4520,PAYLOAD,2023-02-16 09:31:35,15.08858185,0.0001761,53.2176,99.8492,65.2168,294.9007,0.002157,0.00034225,0.0,0 STARLINK-4520,1 53400U 22097N   23047.39693442  .00034225  00000-0  21570-2 0  9991,2 53400  53.2176  99.8492 0001761  65.2168 294.9007 15.08858185 29351,6917.825,95.436,540.908,538.472,0.0
53400.0,STARLINK-4520,PAYLOAD,2023-02-16 11:06:58,15.0881492,0.0001531,53.2167,99.5484,100.4928,259.6236,-0.00048957,-8.066e-05,0.0,0 STARLINK-4520,1 53400U 22097N   23047.46317288 -.00008066  00000-0 -48957-3 0  9995,2 53400  53.2167  99.5484 0001531 100.4928 259.6236 15.08814920 29362,6917.957,95.439,540.881,538.763,0.0
53400.0,STARLINK-4520,PAYLOAD,2023-02-16 20:39:18,15.08808838,0.0001643,53.2166,97.7652,94.3811,265.7369,0.00090044,0.00014059,0.0,0 STARLINK-4520,1 53400U 22097N   23047.86062567  .00014059  00000-0  90044-3 0  9997,2 53400  53.2166  97.7652 0001643  94.3811 265.7369 15.08808838 29911,6917.976,95.44,540.977,538.704,0.0
53400.0,STARLINK-4520,PAYLOAD,2023-02-17 09:22:23,15.08826258,0.000163,53.2154,95.3887,86.5543,273.5636,0.00088692,0.0001385,0.0,0 STARLINK-4520,1 53400U 22097N   23048.39055236  .00013850  00000-0  88692-3 0  9995,2 53400  53.2154  95.3887 0001630  86.5543 273.5636 15.08826258 29508,6917.922,95.438,540.915,538.66,0.0
